{"type":"FeatureCollection","name":"Embakasi South wards","attribution":"Boundaries (c) OpenStreetMap contributors, ODbL. Simplified for display; may differ slightly from official IEBC boundaries.","features":[{"type":"Feature","properties":{"name":"Imara Daima","slug":"imara-daima","osm":"relation/16139988"},"geometry":{"type":"Polygon","coordinates":[[[36.86173,-1.31607],[36.86213,-1.31658],[36.86273,-1.31783],[36.86323,-1.31813],[36.86517,-1.31905],[36.86657,-1.31998],[36.86891,-1.32175],[36.8697,-1.32253],[36.87035,-1.32345],[36.87068,-1.32429],[36.87083,-1.32544],[36.8708,-1.3259],[36.87031,-1.32797],[36.87027,-1.32838],[36.87047,-1.33001],[36.87498,-1.32949],[36.88021,-1.3287],[36.88153,-1.32861],[36.88264,-1.32871],[36.88362,-1.32889],[36.88517,-1.32946],[36.88608,-1.32997],[36.88682,-1.33051],[36.88816,-1.33165],[36.88825,-1.33149],[36.88843,-1.33153],[36.88859,-1.33146],[36.89247,-1.32854],[36.88783,-1.32337],[36.88518,-1.31936],[36.88492,-1.31917],[36.88435,-1.31848],[36.88349,-1.31808],[36.88252,-1.3183],[36.88107,-1.31795],[36.88062,-1.31835],[36.88033,-1.31803],[36.87982,-1.31762],[36.87944,-1.31768],[36.87906,-1.31746],[36.87883,-1.31741],[36.87814,-1.31682],[36.87785,-1.31707],[36.87753,-1.31688],[36.87919,-1.31431],[36.88179,-1.31048],[36.88106,-1.31055],[36.88065,-1.31039],[36.88037,-1.31036],[36.8802,-1.31042],[36.88003,-1.31057],[36.87958,-1.31035],[36.87917,-1.31035],[36.87863,-1.3102],[36.87824,-1.31031],[36.87735,-1.31073],[36.87713,-1.3109],[36.87693,-1.31122],[36.87643,-1.31151],[36.87576,-1.31213],[36.8755,-1.31215],[36.87457,-1.31254],[36.87444,-1.31278],[36.87413,-1.31272],[36.8739,-1.31285],[36.87395,-1.31293],[36.87387,-1.31299],[36.8738,-1.31293],[36.8737,-1.31295],[36.87325,-1.31321],[36.873,-1.31314],[36.87271,-1.31325],[36.87258,-1.3132],[36.87213,-1.31272],[36.87184,-1.3126],[36.8712,-1.31257],[36.87097,-1.31264],[36.87094,-1.31242],[36.87042,-1.3121],[36.86986,-1.31203],[36.8692,-1.31231],[36.86808,-1.31239],[36.86724,-1.31268],[36.86714,-1.3128],[36.86709,-1.31304],[36.86675,-1.31321],[36.86646,-1.31322],[36.86627,-1.31317],[36.86604,-1.31322],[36.86546,-1.31372],[36.86552,-1.31392],[36.86528,-1.31412],[36.86479,-1.31401],[36.86467,-1.31391],[36.86463,-1.31373],[36.86446,-1.31354],[36.86413,-1.31369],[36.86344,-1.31422],[36.86285,-1.3145],[36.86271,-1.31474],[36.86259,-1.31523],[36.86241,-1.3154],[36.86232,-1.31572],[36.86173,-1.31607]]]}},{"type":"Feature","properties":{"name":"Kwa Njenga","slug":"kwa-njenga","osm":"relation/16139990"},"geometry":{"type":"Polygon","coordinates":[[[36.88462,-1.31879],[36.88492,-1.31917],[36.88518,-1.31936],[36.88783,-1.32337],[36.89247,-1.32854],[36.89449,-1.32727],[36.89391,-1.32595],[36.89306,-1.3247],[36.89165,-1.32564],[36.88966,-1.32238],[36.88857,-1.32033],[36.88821,-1.3199],[36.88814,-1.31992],[36.88789,-1.31949],[36.88783,-1.3191],[36.88548,-1.31452],[36.88538,-1.31459],[36.88532,-1.31523],[36.88547,-1.31733],[36.88545,-1.31778],[36.88462,-1.31879]]]}},{"type":"Feature","properties":{"name":"Kwa Reuben","slug":"kwa-reuben","osm":"relation/16139989"},"geometry":{"type":"Polygon","coordinates":[[[36.87753,-1.31688],[36.87785,-1.31707],[36.87814,-1.31682],[36.87883,-1.31741],[36.87906,-1.31746],[36.87944,-1.31768],[36.87982,-1.31762],[36.88033,-1.31803],[36.88062,-1.31835],[36.88104,-1.31795],[36.88252,-1.3183],[36.88349,-1.31808],[36.88435,-1.31848],[36.88462,-1.31879],[36.88545,-1.31778],[36.88547,-1.31733],[36.88532,-1.31523],[36.88538,-1.31459],[36.88548,-1.31452],[36.885,-1.3136],[36.88442,-1.31402],[36.88431,-1.3139],[36.88346,-1.31254],[36.88332,-1.31242],[36.8835,-1.31233],[36.88345,-1.31178],[36.88328,-1.31133],[36.88244,-1.31078],[36.88241,-1.31071],[36.88247,-1.31052],[36.88185,-1.31072],[36.88167,-1.31067],[36.87919,-1.31431],[36.87753,-1.31688]]]}},{"type":"Feature","properties":{"name":"Pipeline","slug":"pipeline","osm":"relation/16139992"},"geometry":{"type":"Polygon","coordinates":[[[36.88686,-1.30738],[36.8877,-1.30861],[36.88785,-1.3085],[36.88817,-1.30895],[36.88756,-1.30944],[36.88732,-1.30977],[36.88824,-1.3112],[36.88817,-1.31126],[36.88951,-1.31337],[36.88993,-1.31415],[36.89306,-1.31912],[36.89222,-1.31966],[36.89469,-1.32368],[36.89306,-1.3247],[36.89391,-1.32595],[36.89449,-1.32727],[36.89237,-1.3286],[36.88859,-1.33146],[36.88843,-1.33153],[36.88825,-1.33149],[36.88816,-1.33165],[36.89466,-1.33758],[36.90234,-1.34511],[36.90668,-1.35083],[36.90904,-1.35336],[36.91038,-1.35491],[36.91079,-1.3552],[36.9109,-1.35545],[36.9114,-1.3561],[36.91244,-1.35729],[36.91342,-1.35799],[36.91684,-1.35498],[36.92029,-1.35182],[36.918,-1.34964],[36.9149,-1.34531],[36.91453,-1.34493],[36.91423,-1.34404],[36.91417,-1.34355],[36.90055,-1.32468],[36.89965,-1.32327],[36.89952,-1.32316],[36.89297,-1.31268],[36.89272,-1.31219],[36.89078,-1.30909],[36.89002,-1.30777],[36.88931,-1.30628],[36.8886,-1.30724],[36.88752,-1.30698],[36.88738,-1.30703],[36.88726,-1.30693],[36.88702,-1.30706],[36.88686,-1.30726],[36.88686,-1.30738]]]}},{"type":"Feature","properties":{"name":"Kware","slug":"kware","osm":"relation/16139991"},"geometry":{"type":"Polygon","coordinates":[[[36.88167,-1.31067],[36.88185,-1.31072],[36.88247,-1.31052],[36.88241,-1.31071],[36.88244,-1.31078],[36.88328,-1.31133],[36.88345,-1.31178],[36.8835,-1.31233],[36.88332,-1.31242],[36.88346,-1.31254],[36.8844,-1.31402],[36.88459,-1.31395],[36.885,-1.3136],[36.88783,-1.3191],[36.88789,-1.31949],[36.88814,-1.31992],[36.88821,-1.3199],[36.88857,-1.32033],[36.88966,-1.32238],[36.89165,-1.32564],[36.89469,-1.32368],[36.89222,-1.31966],[36.89306,-1.31912],[36.88993,-1.31415],[36.88951,-1.31337],[36.88817,-1.31126],[36.88824,-1.3112],[36.88732,-1.30977],[36.88756,-1.30944],[36.88817,-1.30895],[36.88785,-1.3085],[36.8877,-1.30861],[36.88686,-1.30738],[36.88679,-1.30781],[36.88668,-1.30794],[36.88651,-1.30804],[36.88519,-1.30834],[36.88494,-1.30847],[36.88361,-1.30942],[36.88358,-1.30953],[36.88341,-1.30967],[36.88298,-1.30991],[36.88239,-1.31005],[36.88226,-1.31032],[36.88206,-1.31044],[36.88179,-1.31048],[36.88167,-1.31067]]]}}]}